LEMUR-2-FINNIAN         
1 66782U 25276DX  26201.75628909  .00001617  00000+0  13238-3 0  9992
2 66782  97.5347 271.7055 0006882 339.6977  20.3973 15.00651615 25035
LEMUR-2-STARLIGHT       
1 66783U 25276DY  26202.14197301  .00005194  00000+0  42784-3 0  9996
2 66783  97.5237 271.6217 0014569  29.2659 330.9377 14.99404237 35282
LEMUR-2-TARTIFLETTE     
1 66784U 25276DZ  26202.14044286  .00004882  00000+0  40272-3 0  9993
2 66784  97.5234 271.6280 0013828  38.0070 322.2126 14.99385365 35288
LEMUR-2-VUKASIN         
1 66785U 25276EA  26202.17273402  .00003742  00000+0  30092-3 0  9994
2 66785  97.5200 272.0268 0002122  33.3780 326.7577 15.00579723 35245
LEMUR-2-HOTSPUR-TOM     
1 66786U 25276EB  26202.20198678  .00004392  00000+0  36379-3 0  9996
2 66786  97.5213 271.6592 0013553  29.6635 330.5355 14.99281418 35225
LEMUR-2-MYRA            
1 66787U 25276EC  26202.20443817  .00004502  00000+0  35942-3 0  9993
2 66787  97.5224 271.9782 0018533  35.7742 324.4720 15.00632509 35314
LEMUR-2 FIKRETDENGIZ    
1 67363U 26004A   26201.94882538  .00003002  00000+0  32834-3 0  9992
2 67363  97.8036 199.9951 0009784  39.3350 320.8576 14.88543101 28303
TWILIGHT-1 OBJECT B     
1 67364U 26004B   26201.98878606  .00001110  00000+0  12740-3 0  9990
2 67364  97.8078 200.0319 0009314  28.9865 331.1867 14.87805943 28319
LEMUR-2-MARIO-SOUSA     
1 67365U 26004C   26202.26392686  .00003464  00000+0  37605-3 0  9993
2 67365  97.8009 200.3004 0009396  39.9592 320.2314 14.88758179 28367
LEMUR-2-SONNENBLUME     
1 67367U 26004E   26202.26791700  .00001872  00000+0  20741-3 0  9999
2 67367  97.8005 200.2742 0009039  40.8767 319.3126 14.88473629 28366
LEMUR-2-WOBLER          
1 67368U 26004F   26201.98734196  .00002505  00000+0  27385-3 0  9999
2 67368  97.8057 200.1550 0009012  33.5154 326.6632 14.88722677 28329
LEMUR-2-GRAM-E-SUE      
1 67370U 26004H   26202.18156759  .00001650  00000+0  18292-3 0  9995
2 67370  97.7991 200.2059 0008249  44.5429 315.6450 14.88607517 28355
LEMUR-2-KATIE           
1 67387U 26004AA  26201.99755257  .00003345  00000+0  35009-3 0  9997
2 67387  97.8051 200.5955 0002942  19.3742 340.7587 14.90280948 28348
LEMUR-2-HCS-BAZUS       
1 67388U 26004AB  26201.99587166  .00002816  00000+0  29560-3 0  9997
2 67388  97.8039 200.5715 0002444  20.6749 339.4568 14.90288038 28340
